0 DELTA 1 DEB
1 10643U 76077D   13281.43794845  .00000142  00000-0  19201-2 0   982
2 10643 102.0508 086.8436 0169808 189.0677 230.3485 12.10020172643843
0 DELTA 1 DEB
1 10643U 76077D   13287.07349020 -.00000162  00000-0 -12697-2 0  1009
2 10643 102.0512 092.1145 0169662 179.2347 299.1428 12.10024387644526
0 DELTA 1 DEB
1 10643U 76077D   13289.96910679 -.00000100  00000-0 -61520-3 0  1016
2 10643 102.0518 094.8229 0169654 174.1573 312.7008 12.10023127644875
0 DELTA 1 DEB
1 10643U 76077D   13292.43391575  .00000146  00000-0  19538-2 0  1020
2 10643 102.0521 097.1284 0169651 169.8383 249.6200 12.10021073645177
0 DELTA 1 DEB
1 10643U 76077D   13295.01112396  .00000114  00000-0  16181-2 0  1036
2 10643 102.0521 099.5392 0169585 165.3295 316.1283 12.10022109645488
